IRIDIUM 8 [+]           
1 24792U 97020A   16303.44244497  .00000193  00000-0  61919-4 0  9996
2 24792  86.3983  55.1520 0002176  97.8932 262.2511 14.34221030 20129
IRIDIUM 7 [+]           
1 24793U 97020B   16303.36634096  .00000196  00000-0  63044-4 0  9990
2 24793  86.3988  55.4539 0002123  97.3284 262.8154 14.34219424 20117
IRIDIUM 6 [+]           
1 24794U 97020C   16303.49944055  .00000198  00000-0  63630-4 0  9997
2 24794  86.3986  55.3343 0002119  96.0558 264.0880 14.34218286 20130
IRIDIUM 5 [+]           
1 24795U 97020D   16303.42344466  .00000005  00000-0 -52698-5 0  9992
2 24795  86.3989  55.3829 0001955  96.8296 263.3122 14.34218289 20209
IRIDIUM 4 [-]           
1 24796U 97020E   16303.42436005  .00000167  00000-0  51669-4 0  9998
2 24796  86.3981  54.4692 0002196  95.5300 306.8196 14.35114957 20202
IRIDIUM 914 [-]         
1 24836U 97030A   16303.42813245  .00000143  00000-0  40190-4 0  9990
2 24836  86.3938  71.8453 0003328 116.9389 243.2149 14.38716213 15763
IRIDIUM 12 [+]          
1 24837U 97030B   16303.45040025  .00000016  00000-0 -15190-5 0  9995
2 24837  86.3941  86.5600 0001929  91.4776 324.9057 14.34215586 13875
IRIDIUM 10 [+]          
1 24839U 97030D   16303.43787133  .00000024  00000-0  14186-5 0  9995
2 24839  86.3940  86.5459 0002059  96.3074 320.8752 14.34214618 13881
IRIDIUM 13 [+]          
1 24840U 97030E   16303.44580412  .00000016  00000-0 -14017-5 0  9994
2 24840  86.3943  86.6780 0001918  98.6150 261.5263 14.34214138 13871
IRIDIUM 16 [-]          
1 24841U 97030F   16303.45534714  .00000140  00000-0  41008-4 0  9996
2 24841  86.4020  86.6551 0001788  21.5061 338.6211 14.36667471 14454
IRIDIUM 911 [-]         
1 24842U 97030G   16303.50153840  .00000195  00000-0  50149-4 0  9996
2 24842  86.4445  87.5570 0016113 131.9450 228.3128 14.44902751 19632
IRIDIUM 15 [+]          
1 24869U 97034A   16303.48718443  .00000002  00000-0 -64940-5 0  9995
2 24869  86.3927 118.5697 0002009  79.6171 280.5251 14.34217086 10847
IRIDIUM 17 [-]          
1 24870U 97034B   16303.47992325  .00000169  00000-0  51685-4 0  9993
2 24870  86.3931 116.8684 0000696 147.9532 212.1707 14.35713027 11071
IRIDIUM 920 [-]         
1 24871U 97034C   16303.44413492  .00000153  00000-0  42796-4 0  9990
2 24871  86.3945 103.6173 0012594  29.0971 331.0927 14.39434704 13153
IRIDIUM 18 [+]          
1 24872U 97034D   16303.46815611  .00000011  00000-0 -29854-5 0  9997
2 24872  86.3934 118.5362 0001934  82.9682 277.1734 14.34217182 10843
IRIDIUM 921 [-]         
1 24873U 97034E   16303.19765553  .00002162  00000-0  12776-3 0  9998
2 24873  86.3964 175.1158 0009299 134.3804 225.8197 15.10887165 53219
IRIDIUM 26 [-]          
1 24903U 97043A   16303.25810766  .00000257  00000-0  83057-4 0  9990
2 24903  86.3982 351.5020 0002177  89.3421 313.4554 14.35217840  4853
IRIDIUM 25 [+]          
1 24904U 97043B   16303.48619252  .00000186  00000-0  59319-4 0  9998
2 24904  86.3977 351.8994 0002223  90.8737 269.2714 14.34218346  4767
IRIDIUM 46 [+]          
1 24905U 97043C   16303.28956890  .00000213  00000-0  68827-4 0  9994
2 24905  86.3982 352.5146 0002343  93.3874 266.7590 14.34218568  4731
IRIDIUM 23 [+]          
1 24906U 97043D   16303.29246543  .00000201  00000-0  64744-4 0  9994
2 24906  86.3992 351.9937 0002441  91.6833 316.0519 14.34222489  4747
IRIDIUM 22 [+]          
1 24907U 97043E   16303.18809248  .00000110  00000-0  32086-4 0  9993
2 24907  86.3988 352.6659 0002237  93.7922 266.3529 14.34218320  4722
DUMMY MASS 1 [-]        
1 24925U 97048A   16303.54335450  .00000144  00000-0  13576-4 0  9997
2 24925  86.3350 149.7714 0008812 126.2777 233.9262 14.85104682 37357
DUMMY MASS 2 [-]        
1 24926U 97048B   16303.07413189  .00000143  00000-0  13517-4 0  9996
2 24926  86.3352 151.0649 0009348 134.7208 225.4779 14.84872907 36899
IRIDIUM 29 [-]          
1 24944U 97051A   16303.31218653  .00000103  00000-0  29636-4 0  9991
2 24944  86.4003  23.4613 0002340 101.8489 258.2969 14.34606184  1329
IRIDIUM 32 [+]          
1 24945U 97051B   16303.28676369  .00000245  00000-0  80489-4 0  9990
2 24945  86.4001  23.6401 0002287  96.1227 264.0229 14.34227378  1329
IRIDIUM 33 [-]          
1 24946U 97051C   16303.27960916  .00000123  00000-0  37292-4 0  9993
2 24946  86.3918  23.3914 0005741 276.6145  83.4397 14.33519248   950
IRIDIUM 28 [-]          
1 24948U 97051E   16303.33540071  .00000154  00000-0  46752-4 0  9993
2 24948  86.4008  22.8162 0001968  87.0491 273.0931 14.35511920  1466
IRIDIUM 30 [+]          
1 24949U 97051F   16303.35018191  .00000043  00000-0  83240-5 0  9990
2 24949  86.4024  23.7129 0001829  87.2580 272.8825 14.34221048  1316
IRIDIUM 31 [+]          
1 24950U 97051G   16303.34383708  .00000254  00000-0  83558-4 0  9995
2 24950  86.4002  23.7081 0002239 100.1205 260.0243 14.34222608  1323
IRIDIUM 19 [+]          
1 24965U 97056A   16303.39807376  .00000190  00000-0  60801-4 0  9998
2 24965  86.3984  55.1802 0002126  97.6197 262.5240 14.34219741999472
IRIDIUM 35 [+]          
1 24966U 97056B   16303.41075266  .00000208  00000-0  67210-4 0  9998
2 24966  86.3983  55.1706 0002144  97.3384 262.8056 14.34221156999459
IRIDIUM 36 [-]          
1 24967U 97056C   16303.41838896  .00000138  00000-0  40987-4 0  9999
2 24967  86.3995  54.4065 0002081  97.9834 262.1599 14.35563416999756
IRIDIUM 37 [+]          
1 24968U 97056D   16303.45515622  .00000210  00000-0  68032-4 0  9995
2 24968  86.3986  55.3319 0002158  98.4947 261.6494 14.34220722999460
IRIDIUM 34 [+]          
1 24969U 97056E   16303.40439059  .00000201  00000-0  64801-4 0  9990
2 24969  86.3986  55.2896 0002101  98.5828 261.5606 14.34222576999459
IRIDIUM 43 [+]          
1 25039U 97069A   16303.46182212 -.00000105  00000-0 -44413-4 0  9997
2 25039  86.3930 118.4674 0001836  91.0268 269.1138 14.34213664993246
IRIDIUM 41 [+]          
1 25040U 97069B   16303.45546846 -.00000013  00000-0 -11694-4 0  9998
2 25040  86.3933 118.4254 0001955  81.8913 278.2505 14.34216734993241
IRIDIUM 40 [+]          
1 25041U 97069C   16303.48102318 -.00000128  00000-0 -52879-4 0  9991
2 25041  86.3927 118.6393 0001783 118.8174 241.3201 14.34210360993265
IRIDIUM 39 [B]          
1 25042U 97069D   16303.46118612  .00000218  00000-0  55187-4 0  9997
2 25042  86.3889 117.6668 0019100   6.7182 353.4273 14.46100611993379
IRIDIUM 38 [-]          
1 25043U 97069E   16303.50525436  .00000176  00000-0  53884-4 0  9994
2 25043  86.3930 115.8662 0001544  53.8026 306.3313 14.35985555993620
IRIDIUM 42 [-]          
1 25077U 97077A   16303.51400573  .00000152  00000-0  47085-4 0  9995
2 25077  86.3933 118.3894 0001998  86.5568 273.5856 14.34510887989120
IRIDIUM 44 [-]          
1 25078U 97077B   16303.48681413  .00000151  00000-0  43163-4 0  9998
2 25078  86.3930 108.5426 0001243  38.9682 321.1605 14.38071482990470
IRIDIUM 45 [+]          
1 25104U 97082A   16303.26772817  .00000249  00000-0  81730-4 0  9999
2 25104  86.4000  23.7774 0001911  64.5468 295.5926 14.34229490987276
IRIDIUM 24 [-]          
1 25105U 97082B   16303.24535866  .00000161  00000-0  45051-4 0  9998
2 25105  86.3923 332.9971 0012707  34.8889 325.3140 14.39814061989626
IRIDIUM 47 [+]          
1 25106U 97082C   16303.29592252  .00000186  00000-0  59185-4 0  9996
2 25106  86.3975 351.8576 0002384  91.4098 268.7371 14.34223649987272
IRIDIUM 49 [+]          
1 25108U 97082E   16303.33729154  .00000196  00000-0  62925-4 0  9993
2 25108  86.3976 351.9368 0002306  91.8720  56.2943 14.34223778987284
IRIDIUM 52 [+]          
1 25169U 98010A   16303.47751257  .00000020  00000-0  46231-7 0  9997
2 25169  86.3945  86.8339 0002026  95.9018 264.2408 14.34215585978715
IRIDIUM 56 [+]          
1 25170U 98010B   16303.47116660 -.00000073  00000-0 -33077-4 0  9993
2 25170  86.3937  86.9338 0001986  83.6733 276.4689 14.34209218978699
IRIDIUM 54 [+]          
1 25171U 98010C   16303.43312454  .00000016  00000-0 -12902-5 0  9990
2 25171  86.3945  86.8721 0002030  96.3902 263.7525 14.34215580978859
IRIDIUM 50 [+]          
1 25172U 98010D   16303.46486085  .00000014  00000-0 -21014-5 0  9998
2 25172  86.3945  86.8166 0002014  93.7888 266.3538 14.34214636978695
IRIDIUM 53 [+]          
1 25173U 98010E   16303.48388071  .00000009  00000-0 -38116-5 0  9992
2 25173  86.3945  86.8140 0002028  96.4207 263.7220 14.34215102978708
IRIDIUM 51 [S]          
1 25262U 98018A   16303.42979049  .00000264  00000-0  87261-4 0  9990
2 25262  86.3999  55.4610 0002318  97.5612 262.5847 14.34221415978081
IRIDIUM 61 [+]          
1 25263U 98018B   16303.46149050  .00000195  00000-0  62741-4 0  9995
2 25263  86.3985  55.2946 0002154  96.6563 263.4878 14.34220058973799
IRIDIUM 55 [+]          
1 25272U 98019A   16303.32481788  .00000243  00000-0  79792-4 0  9996
2 25272  86.4001  23.5342 0002277  95.9958 264.1497 14.34222856972975
IRIDIUM 57 [-]          
1 25273U 98019B   16303.36782150  .00000111  00000-0  32640-4 0  9993
2 25273  86.4007  23.8137 0002270  95.9756 264.1699 14.34241852972988
IRIDIUM 58 [+]          
1 25274U 98019C   16303.37555470  .00000242  00000-0  79184-4 0  9997
2 25274  86.4008  24.0009 0002322  94.6388 265.5073 14.34222277972987
IRIDIUM 59 [+]          
1 25275U 98019D   16303.38188475  .00000230  00000-0  75141-4 0  9992
2 25275  86.4002  23.8637 0002434  98.4230 261.7242 14.34220344972987
IRIDIUM 60 [+]          
1 25276U 98019E   16303.31847073  .00000240  00000-0  78683-4 0  9997
2 25276  86.4000  23.5191 0002232  95.4906 264.6544 14.34222294972973
IRIDIUM 62 [+]          
1 25285U 98021A   16303.14026250  .00000031  00000-0  38472-5 0  9998
2 25285  86.3936 320.5077 0002323  89.5161 270.6301 14.34222539971903
IRIDIUM 63 [-]          
1 25286U 98021B   16303.51162207  .00000146  00000-0  44809-4 0  9990
2 25286  86.3965 320.7470 0002348  95.1775  16.6238 14.34621621971975
